STARLINK-30593
1 58112U 23161R   25355.46547913  .00000496  00000+0  28877-4 0  9993
2 58112  53.1609 168.9800 0001127  96.7634 263.3495 15.30188870122447